BEESAT-4                
1 41619U 16040W   21226.89762013  .00001889  00000-0  76527-4 0  9998
2 41619  97.2652 281.3473 0012147 120.7094 239.5343 15.25812830273927
CAS-2T & KS-1Q          
1 41847U 16066G   21227.12436588  .00000066  00000-0  19679-4 0  9992
2 41847  98.5969 286.4812 0365896  45.3993 317.6438 14.38224516250312
NAYIF-1 (EO-88)         
1 42017U 17008BX  21227.15847826  .00002016  00000-0  75315-4 0  9999
2 42017  97.3121 293.7078 0004247 254.9092 105.1678 15.28506169250225
ZHUHAI-1 02 (CAS-4B)    
1 42759U 17034B   21227.09536218  .00000194  00000-0  24952-4 0  9990
2 42759  43.0174 218.6678 0007847 180.1735 294.7881 15.10305848230017
ZHUHAI-1 01 (CAS-4A)    
1 42761U 17034D   21227.21438593  .00000093  00000-0  18828-4 0  9997
2 42761  43.0160 217.0199 0008013 181.7929 288.7529 15.10392542230035
MAX VALIER SAT          
1 42778U 17036P   21227.07968484  .00001135  00000-0  49908-4 0  9999
2 42778  97.2507 273.7605 0010867 337.9124  22.1644 15.23809544230219
RADFXSAT (FOX-1B)       
1 43017U 17073E   21226.69648599  .00000614  00000-0  51830-4 0  9994
2 43017  97.7006 128.3635 0256019 110.2087 252.6854 14.79637891201736
FOX-1D (AO-92)          
1 43137U 18004AC  21227.17587895  .00001294  00000-0  53932-4 0  9997
2 43137  97.4037 300.6063 0008964  15.6192 344.5321 15.25476493199602
DIWATA-2B               
1 43678U 18084H   21227.21204473 -.00000099  00000-0 -40230-5 0  9990
2 43678  97.9313 352.8176 0009069 211.0073 149.0591 14.91773637152197
ES'HAIL 2               
1 43700U 18090A   21226.84692403  .00000139  00000-0  00000-0 0  9994
2 43700   0.0153 117.4642 0002009  54.5304 122.1594  1.00270461  9950
FOX-1CLIFF (AO-95)      
1 43770U 18099N   21226.66612064  .00000659  00000-0  64726-4 0  9991
2 43770  97.6615 295.5596 0013620 217.8525 142.1739 14.95384358147155
ITASAT 1                
1 43786U 18099AE  21226.64096491 -.00000186  00000-0 -11598-4 0  9992
2 43786  97.6637 296.2539 0014337 211.4894 148.5470 14.95671600147180
JY1SAT (JO-97)          
1 43803U 18099AX  21227.13011506  .00000560  00000-0  55059-4 0  9995
2 43803  97.6594 296.4776 0014446 208.9839 151.0581 14.95928606147260
UWE-4                   
1 43880U 18111E   21227.00745321  .00000414  00000-0  41085-4 0  9992
2 43880  97.6810 133.7311 0010748 267.7925  92.2066 14.96935135141842
NEXUS (FO-99)           
1 43937U 19003F   21226.55538146  .00001653  00000-0  66514-4 0  9990
2 43937  97.1723 267.4043 0023580 162.1574 198.0498 15.26003405143123
PSAT2 (NO-104)          
1 44354U 19036R   21226.95130850  .00011786  00000-0  14968-3 0  9997
2 44354  28.5281  96.4392 0317445 191.2001 168.1390 15.15600586117845
BRICSAT2 (NO-103)       
1 44355U 19036S   21226.83610713  .00018771 -63359-5  17461-3 0  9990
2 44355  28.5292  41.8820 0246995 280.2907  76.9932 15.34031477118390
JAISAT-1                
1 44419U 19038F   21226.87095720  .00001053  00000-0  61514-4 0  9994
2 44419  97.5927 191.3769 0022586 109.2499 251.1179 15.13929886116631
DUCHIFAT-3              
1 44854U 19089C   21227.05699030  .00000440  00000-0  41466-4 0  9991
2 44854  36.9659 114.0451 0009302 259.3403 100.6316 14.99572476 91901
CAS-6 (TO-108)          
1 44881U 19093C   21227.16131866  .00000054  00000-0  13703-4 0  9990
2 44881  97.9231 305.3465 0016460 101.2882 259.0183 14.81470685 89428
RS-44 & BREEZE-KM R/B   
1 44909U 19096E   21226.87263663  .00000006  00000-0 -15577-4 0  9991
2 44909  82.5176  73.9931 0216742 316.7567  41.6692 12.79710809 76292
ORBITAL FACTORY 2 (OF-2)
1 45113U 19071C   21227.09160100  .00003272  00000-0  10203-3 0  9996
2 45113  51.6419 113.1071 0012216 143.1311 217.0515 15.36198876 86180
HUSKYSAT-1 (HO-107)     
1 45119U 19071J   21227.03752649  .00002711  00000-0  86425-4 0  9998
2 45119  51.6416 112.7395 0011691 139.4482 220.7374 15.36191681 86170
BY70-2                  
1 45857U 20042B   21227.10527403  .00000977  00000-0  14519-3 0  9999
2 45857  97.9827 302.2449 0011423  33.9942 326.2000 14.77187393 60209
SALSAT                  
1 46495U 20068K   21226.89504130  .00000739  00000-0  58582-4 0  9998
2 46495  97.6954 164.0517 0015788 231.3139 128.6675 15.03521535 48114
BY70-3                  
1 46839U 20079N   21227.15872638  .00002536  00000-0  79184-4 0  9991
2 46839  97.2370 299.8555 0006921   9.7869  73.7335 15.34090285 43204
RADFXSAT-2 (AO-109)     
1 47311U 21002C   21227.03245395  .00001339  00000-0  69271-4 0  9991
2 47311  60.6863  71.8777 0042218  78.4557 282.1265 15.21855633 31792
UVSQ-SAT                
1 47438U 21006AB  21226.90364509  .00000795  00000-0  48284-4 0  9995
2 47438  97.4831 287.0727 0011137 254.0101 105.9903 15.13271141 30892
DIY-1 (ARDUIQUBE)       
1 47963U 21022AH  21226.71135695  .00001536  00000-0  10477-3 0  9993
2 47963  97.5527 128.0089 0021261 103.6413 256.7184 15.07515721 20676
